CCSDS_OEM_VERS = 2.0  
CREATION_DATE  = 2023-05-24T07:35:47
ORIGINATOR     = ESOC/OPS-GFA                            
 
 



META_START
OBJECT_NAME          = LISA                                    
OBJECT_ID            = -1000                                   
CENTER_NAME          = SUN                     
REF_FRAME            = EME2000 
TIME_SYSTEM          = TDB
START_TIME           = 2035-09-12T12:00:00.00000000            
STOP_TIME            = 2046-06-13T01:04:47.99999985            
INTERPOLATION        = HERMITE                                 
INTERPOLATION_DEGREE = 7                                       
META_STOP

2046-03-27T20:19:50.92749971  -140496497.828300    46555946.101010    21033486.411863 -10.0925128 -25.8383738 -10.9888768     0.000005580676    -0.000001849326    -0.000000835507
2046-03-31T05:52:34.69647936  -143217151.192216    38895382.812212    17773391.955446  -8.4373749 -26.3368985 -11.2152772     0.000005692274    -0.000001545998    -0.000000706450
2046-04-03T15:25:18.46545901  -145447386.371932    31101626.952454    14452434.517177  -6.7523346 -26.7455125 -11.4033987     0.000005784327    -0.000001236957    -0.000000574794
2046-04-07T00:58:02.23443866  -147179273.517411    23201303.768404    11081956.818888  -5.0431864 -27.0626962 -11.5525454     0.000005856463    -0.000000923280    -0.000000440998
2046-04-10T10:30:46.00341800  -148406597.345975    15221438.091438     7673486.066633  -3.3158224 -27.2872495 -11.6621574     0.000005908383    -0.000000606066    -0.000000305530
2046-04-13T19:37:30.42096202  -149122420.471313     7232113.607113     4256987.233638  -1.5854747 -27.4178494 -11.7315495     0.000005939749    -0.000000288133    -0.000000169594
2046-04-17T04:44:14.83850604  -149331926.190885     -781769.846025      826032.764169   0.1510599 -27.4553967 -11.7611326     0.000005950740     0.000000031085    -0.000000032949
2046-04-20T13:50:59.25604975  -149034178.357294    -8793001.788269    -2607729.572948   1.8878193 -27.3996797 -11.7507696     0.000005941282     0.000000350467     0.000000103925
2046-04-23T22:57:43.67359377  -148229982.689272   -16774357.278848    -6032632.272134   3.6188306 -27.2508145 -11.7004639     0.000005911376     0.000000668888     0.000000240547
2046-04-27T07:32:02.17633892  -146932265.580172   -24646134.241957    -9414436.087397   5.3267264 -27.0111609 -11.6110911     0.000005861499     0.000000983127     0.000000375533
2046-04-30T16:06:20.67908407  -145141537.245648   -32435218.946182   -12764653.239937   7.0172566 -26.6807909 -11.4827267     0.000005791669     0.000001294211     0.000000509322
2046-05-04T00:40:39.18182922  -142863671.708993   -40115446.555281   -16072030.892889   8.6846637 -26.2607774 -11.3157857     0.000005702105     0.000001601052     0.000000641447
2046-05-07T09:14:57.68457437  -140106201.642357   -47661008.415600   -19325455.877068  10.3232652 -25.7525076 -11.1108179     0.000005593104     0.000001902575     0.000000771446
2046-05-10T17:52:51.72778440  -136875724.618611   -55051966.352994   -22516336.792259  11.9286521 -25.1572039 -10.8683127     0.000005464928     0.000002197940     0.000000898956
2046-05-14T02:30:45.77099411  -133184909.024417   -62257780.079423   -25631493.841448  13.4941129 -24.4772160 -10.5892243     0.000005318090     0.000002485882     0.000001023432
2046-05-17T11:08:39.81420413  -129046124.114221   -69254195.310150   -28660442.033410  15.0143022 -23.7148459 -10.2744973     0.000005153096     0.000002765391     0.000001144436
2046-05-20T19:46:33.85741384  -124473267.623580   -76017667.257077   -31592988.391388  16.4840317 -22.8726847  -9.9252011     0.000004970521     0.000003035485     0.000001261545
2046-05-24T04:34:06.15097640  -119471368.526740   -82538139.195327   -34424786.223601  17.9010477 -21.9516979  -9.5417317     0.000004770589     0.000003295725     0.000001374568
2046-05-27T13:21:38.44453895  -114066016.044492   -88779888.760066   -37140335.640749  19.2575242 -20.9566435  -9.1260663     0.000004554353     0.000003544650     0.000001482871
2046-05-30T22:09:10.73810150  -108275497.570507   -94721864.703479   -39730477.593349  20.5488289 -19.8909404  -8.6796333     0.000004322578     0.000003781388     0.000001586075
2046-06-03T06:56:43.03166405  -102119413.992124  -100344045.291396   -42186483.790455  21.7705607 -18.7582541  -8.2039685     0.000004076087     0.000004005115     0.000001683820
2046-06-05T17:28:44.27374808   -97442771.091107  -104206737.680673   -43877347.357902  22.6098714 -17.8979868  -7.8420157     0.000003888807     0.000004158634     0.000001751033
2046-06-08T04:00:45.51583211   -92593477.355987  -107884800.219234   -45490470.752899  23.4089834 -17.0061571  -7.4662312     0.000003694611     0.000004304636     0.000001815080
2046-06-10T14:32:46.75791614   -87580154.434534  -111371750.920850   -47023010.518084  24.1664772 -16.0843769  -7.0772945     0.000003493861     0.000004442858     0.000001875845
2046-06-13T01:04:47.99999985   -82411714.902048  -114661453.114822   -48472268.842918  24.8810110 -15.1343119  -6.6759086     0.000003286932     0.000004573053     0.000001933220
